{
    "satellites": [
        {
            "name": "starlink348",
            "title": "Starlink-348 (G6-101)",
            "tle": [
                "1 67644C 26020AD  26038.09076389 -.01791500  00000+0 -54707-2 0   381",
                "2 67644  42.9996 328.2495 0001409 267.8396 159.8393 15.92742153    14"
            ],
            "stdMag": 5,
            "noradId": "67644",
            "tleUrl": "http://celestrak.org/NORAD/elements/supplemental/sup-gp.php?FILE=starlink&FORMAT=tle",
            "launchDate": "2026-01-30T07:22:00.000Z",
            "active": true,
            "batch": [
                {
                    "noradId": "67644",
                    "tle": [
                        "1 67644C 26020AD  26038.09076389 -.01791500  00000+0 -54707-2 0   381",
                        "2 67644  42.9996 328.2495 0001409 267.8396 159.8393 15.92742153    14"
                    ]
                },
                {
                    "noradId": "67645",
                    "tle": [
                        "1 67645C 26020AE  26038.08729167 -.01794100  00000+0 -55232-2 0   383",
                        "2 67645  42.9997 328.2780 0001417 264.0027 141.0610 15.92587632    16"
                    ]
                },
                {
                    "noradId": "67642",
                    "tle": [
                        "1 67642C 26020AB  26038.08937500 -.01798400  00000+0 -55962-2 0   389",
                        "2 67642  42.9998 328.2731 0001494 267.1118 146.7798 15.92382056    12"
                    ]
                },
                {
                    "noradId": "67641",
                    "tle": [
                        "1 67641C 26020AA  26038.08520833 -.01800500  00000+0 -56368-2 0   381",
                        "2 67641  42.9998 328.3050 0001554 266.4669 121.2609 15.92266177    10"
                    ]
                },
                {
                    "noradId": "67643",
                    "tle": [
                        "1 67643C 26020AC  26038.08798611 -.01806600  00000+0 -57161-2 0   383",
                        "2 67643  42.9998 328.2952 0001470 267.0231 133.5741 15.92066029    18"
                    ]
                },
                {
                    "noradId": "67640",
                    "tle": [
                        "1 67640C 26020Z   26038.09284722 -.01814300  00000+0 -57992-2 0   382",
                        "2 67640  43.0000 328.2724 0001443 267.5750 158.0401 15.91874892    18"
                    ]
                },
                {
                    "noradId": "67639",
                    "tle": [
                        "1 67639C 26020Y   26038.08381944 -.01814100  00000+0 -58257-2 0   386",
                        "2 67639  43.0000 328.3341 0001544 265.1495 106.5482 15.91782593    17"
                    ]
                },
                {
                    "noradId": "67638",
                    "tle": [
                        "1 67638C 26020X   26038.08381944 -.01820100  00000+0 -58974-2 0   388",
                        "2 67638  43.0000 328.3413 0001530 262.7121 106.1833 15.91612612    10"
                    ]
                },
                {
                    "noradId": "67637",
                    "tle": [
                        "1 67637C 26020W   26038.09215278 -.01824900  00000+0 -59790-2 0   383",
                        "2 67637  43.0002 328.2970 0001485 269.0682 144.6591 15.91399563    14"
                    ]
                },
                {
                    "noradId": "67636",
                    "tle": [
                        "1 67636C 26020V   26038.09145833 -.01832100  00000+0 -61028-2 0   389",
                        "2 67636  43.0002 328.3150 0001437 267.8590 136.5776 15.91080112    17"
                    ]
                },
                {
                    "noradId": "67635",
                    "tle": [
                        "1 67635C 26020U   26038.09076389 -.01829000  00000+0 -60533-2 0   382",
                        "2 67635  43.0000 328.3135 0001456 265.5438 137.0266 15.91204035    16"
                    ]
                },
                {
                    "noradId": "67634",
                    "tle": [
                        "1 67634C 26020T   26038.08659722 -.01838600  00000+0 -62426-2 0   387",
                        "2 67634  43.0001 328.3629 0001583 265.4146 103.9680 15.90707417    13"
                    ]
                },
                {
                    "noradId": "67633",
                    "tle": [
                        "1 67633C 26020S   26038.08590278 -.01842000  00000+0 -63015-2 0   380",
                        "2 67633  43.0000 328.3742 0001562 262.0873 100.6699 15.90560742    16"
                    ]
                },
                {
                    "noradId": "67632",
                    "tle": [
                        "1 67632C 26020R   26038.08590278 -.01846800  00000+0 -63609-2 0   380",
                        "2 67632  42.9999 328.3798 0001607 263.2704  97.2059 15.90430272    12"
                    ]
                },
                {
                    "noradId": "67631",
                    "tle": [
                        "1 67631C 26020Q   26038.08798611 -.01849100  00000+0 -64271-2 0   382",
                        "2 67631  42.9999 328.3740 0001568 266.2062 103.4317 15.90251030    14"
                    ]
                },
                {
                    "noradId": "67630",
                    "tle": [
                        "1 67630C 26020P   26038.11090278 -.01853900  00000+0 -65164-2 0   384",
                        "2 67630  42.9998 328.2376 0001256 264.1913 234.4831 15.90033340    10"
                    ]
                },
                {
                    "noradId": "67629",
                    "tle": [
                        "1 67629C 26020N   26038.11090278 -.01859800  00000+0 -66099-2 0   385",
                        "2 67629  42.9998 328.2474 0001254 267.3348 227.4169 15.89817050    14"
                    ]
                },
                {
                    "noradId": "67628",
                    "tle": [
                        "1 67628C 26020M   26038.08381944 -.01857100  00000+0 -65309-2 0   387",
                        "2 67628  42.9998 328.4103 0001580 262.7721  78.7374 15.90025893    13"
                    ]
                },
                {
                    "noradId": "67626",
                    "tle": [
                        "1 67626C 26020K   26038.11020833 -.01861700  00000+0 -66754-2 0   382",
                        "2 67626  42.9998 328.2592 0001311 268.7465 219.1448 15.89641660    11"
                    ]
                },
                {
                    "noradId": "67627",
                    "tle": [
                        "1 67627C 26020L   26038.10951389 -.01867900  00000+0 -67560-2 0   385",
                        "2 67627  42.9999 328.2707 0001248 267.3016 213.7420 15.89473379    17"
                    ]
                },
                {
                    "noradId": "67625",
                    "tle": [
                        "1 67625C 26020J   26038.10881944 -.01872300  00000+0 -68231-2 0   388",
                        "2 67625  42.9998 328.2814 0001266 266.4339 208.0900 15.89326261    18"
                    ]
                },
                {
                    "noradId": "67624",
                    "tle": [
                        "1 67624C 26020H   26038.11784722 -.01876400  00000+0 -69051-2 0   380",
                        "2 67624  42.9997 328.2322 0001198 262.5945 260.9591 15.89132723    15"
                    ]
                },
                {
                    "noradId": "67623",
                    "tle": [
                        "1 67623C 26020G   26038.08868056 -.01876500  00000+0 -69253-2 0   383",
                        "2 67623  42.9998 328.4198 0001583 263.6995  90.0628 15.89073999    15"
                    ]
                },
                {
                    "noradId": "67622",
                    "tle": [
                        "1 67622C 26020F   26038.08937500 -.01880900  00000+0 -70005-2 0   389",
                        "2 67622  42.9998 328.4223 0001513 262.4904  92.5207 15.88907488    11"
                    ]
                },
                {
                    "noradId": "67621",
                    "tle": [
                        "1 67621C 26020E   26038.08729167 -.01888300  00000+0 -71271-2 0   384",
                        "2 67621  42.9998 328.4477 0001532 263.8462  74.2816 15.88631054    12"
                    ]
                },
                {
                    "noradId": "67620",
                    "tle": [
                        "1 67620C 26020D   26038.08868056 -.01883800  00000+0 -70556-2 0   389",
                        "2 67620  42.9997 328.4322 0001530 261.9647  86.7884 15.88783531    12"
                    ]
                },
                {
                    "noradId": "67619",
                    "tle": [
                        "1 67619C 26020C   26038.11298611 -.01893700  00000+0 -72496-2 0   380",
                        "2 67619  42.9997 328.2965 0001242 268.4025 213.7776 15.88348116    11"
                    ]
                },
                {
                    "noradId": "67618",
                    "tle": [
                        "1 67618C 26020B   26038.08520833 -.01893800  00000+0 -72434-2 0   382",
                        "2 67618  42.9997 328.4725 0001512 262.8578  58.6725 15.88365975    19"
                    ]
                },
                {
                    "noradId": "67617",
                    "tle": [
                        "1 67617C 26020A   26038.08381944 -.01897800  00000+0 -73026-2 0   381",
                        "2 67617  42.9994 328.4865 0001472 259.2403  52.1491 15.88247629    16"
                    ]
                }
            ]
        }
    ],
    "config": {}
}